CTC1_L_00195016-03
1 10062U 22826VE  26075.70031250  .00000000  00000+0  00000-0 0  9996
2 10062  50.0000 180.0000 0000000   0.0000   0.0000 13.56072486    18
CTC1_L_00195016-04
1 10063U 25676MT  26075.70031250  .00000000  00000+0  00000-0 0  9993
2 10063  50.0000 180.0000 0000000   0.0000  90.0000 13.56072486    18
CTC1_L_00195017-01
1 10064U 22606OR  26075.70031250  .00000000  00000+0  00000-0 0  9994
2 10064  50.0000 192.0000 0000000   0.0000 192.0000 13.56072486    15
CTC1_L_00195017-02
1 10065U 23215BP  26075.70031250  .00000000  00000+0  00000-0 0  9992
2 10065  50.0000 192.0000 0000000   0.0000 282.0000 13.56072486    16
CTC1_L_00195017-03
1 10066U 24458HE  26075.70031250  .00000000  00000+0  00000-0 0  9993
2 10066  50.0000 192.0000 0000000   0.0000  12.0000 13.56072486    18
CTC1_L_00195017-04
1 10067U 24900DT  26075.70031250  .00000000  00000+0  00000-0 0  9996
2 10067  50.0000 192.0000 0000000   0.0000 102.0000 13.56072486    19
CTC1_L_00195018-01
1 10068U 23889TS  26075.70031250  .00000000  00000+0  00000-0 0  9992
2 10068  50.0000 204.0000 0000000   0.0000 204.0000 13.56072486    17
CTC1_L_00195018-02
1 10069U 26617Z   26075.70031250  .00000000  00000+0  00000-0 0  9995
2 10069  50.0000 204.0000 0000000   0.0000 294.0000 13.56072486    17
CTC1_L_00195018-03
1 10070U 23735YB  26075.70031250  .00000000  00000+0  00000-0 0  9995
2 10070  50.0000 204.0000 0000000   0.0000  24.0000 13.56072486    10
CTC1_L_00195018-04
1 10071U 22972RT  26075.70031250  .00000000  00000+0  00000-0 0  9998
2 10071  50.0000 204.0000 0000000   0.0000 114.0000 13.56072486    11
CTC1_L_00195019-01
1 10072U 24356JK  26075.70031250  .00000000  00000+0  00000-0 0  9997
2 10072  50.0000 216.0000 0000000   0.0000 216.0000 13.56072486    18
CTC1_L_00195019-02
1 10073U 26138P   26075.70031250  .00000000  00000+0  00000-0 0  9998
2 10073  50.0000 216.0000 0000000   0.0000 306.0000 13.56072486    19
CTC1_L_00195019-03
1 10074U 26303KQ  26075.70031250  .00000000  00000+0  00000-0 0  9993
2 10074  50.0000 216.0000 0000000   0.0000  36.0000 13.56072486    10
CTC1_L_00195019-04
1 10075U 26050US  26075.70031250  .00000000  00000+0  00000-0 0  9993
2 10075  50.0000 216.0000 0000000   0.0000 126.0000 13.56072486    11
CTC1_L_00195020-01
1 10076U 24042OP  26075.70031250  .00000000  00000+0  00000-0 0  9993
2 10076  50.0000 228.0000 0000000   0.0000 228.0000 13.56072486    18
CTC1_L_00195020-02
1 10077U 22641ZU  26075.70031250  .00000000  00000+0  00000-0 0  9997
2 10077  50.0000 228.0000 0000000   0.0000 318.0000 13.56072486    19
CTC1_L_00195020-03
1 10078U 24503TG  26075.70031250  .00000000  00000+0  00000-0 0  9997
2 10078  50.0000 228.0000 0000000   0.0000  48.0000 13.56072486    10
CTC1_L_00195020-04
1 10079U 23579OY  26075.70031250  .00000000  00000+0  00000-0 0  9990
2 10079  50.0000 228.0000 0000000   0.0000 138.0000 13.56072486    11
CTC1_L_00195021-01
1 10080U 24192K   26075.70031250  .00000000  00000+0  00000-0 0  9994
2 10080  50.0000 240.0000 0000000   0.0000 240.0000 13.56072486    11
CTC1_L_00195021-02
1 10081U 26321JS  26075.70031250  .00000000  00000+0  00000-0 0  9991
2 10081  50.0000 240.0000 0000000   0.0000 330.0000 13.56072486    12
CTC1_L_00195021-03
1 10082U 25683UA  26075.70031250  .00000000  00000+0  00000-0 0  9992
2 10082  50.0000 240.0000 0000000   0.0000  60.0000 13.56072486    13
CTC1_L_00195021-04
1 10083U 25134XC  26075.70031250  .00000000  00000+0  00000-0 0  9994
2 10083  50.0000 240.0000 0000000   0.0000 150.0000 13.56072486    14
CTC1_L_00195022-01
1 10084U 26170AZ  26075.70031250  .00000000  00000+0  00000-0 0  9996
2 10084  50.0000 252.0000 0000000   0.0000 252.0000 13.56072486    11
CTC1_L_00195022-02
1 10085U 22188VK  26075.70031250  .00000000  00000+0  00000-0 0  9992
2 10085  50.0000 252.0000 0000000   0.0000 342.0000 13.56072486    12
CTC1_L_00195022-03
1 10086U 25848JR  26075.70031250  .00000000  00000+0  00000-0 0  9999
2 10086  50.0000 252.0000 0000000   0.0000  72.0000 13.56072486    13
CTC1_L_00195022-04
1 10087U 23900IM  26075.70031250  .00000000  00000+0  00000-0 0  9997
2 10087  50.0000 252.0000 0000000   0.0000 162.0000 13.56072486    14
CTC1_L_00195023-01
1 10088U 23972RT  26075.70031250  .00000000  00000+0  00000-0 0  9997
2 10088  50.0000 264.0000 0000000   0.0000 264.0000 13.56072486    11
CTC1_L_00195023-02
1 10089U 26216EF  26075.70031250  .00000000  00000+0  00000-0 0  9992
2 10089  50.0000 264.0000 0000000   0.0000 354.0000 13.56072486    12
CTC1_L_00195023-03
1 10090U 25710SL  26075.70031250  .00000000  00000+0  00000-0 0  9992
2 10090  50.0000 264.0000 0000000   0.0000  84.0000 13.56072486    14
CTC1_L_00195023-04
1 10091U 25513CO  26075.70031250  .00000000  00000+0  00000-0 0  9994
2 10091  50.0000 264.0000 0000000   0.0000 174.0000 13.56072486    15
CTC1_L_00195024-01
1 10092U 22066HY  26075.70031250  .00000000  00000+0  00000-0 0  9995
2 10092  50.0000 276.0000 0000000   0.0000 276.0000 13.56072486    12
CTC1_L_00195024-02
1 10093U 23671IQ  26075.70031250  .00000000  00000+0  00000-0 0  9999
2 10093  50.0000 276.0000 0000000   0.0000   6.0000 13.56072486    14
CTC1_L_00195024-03
1 10094U 25259SL  26075.70031250  .00000000  00000+0  00000-0 0  9994
2 10094  50.0000 276.0000 0000000   0.0000  96.0000 13.56072486    14
CTC1_L_00195024-04
1 10095U 26057RW  26075.70031250  .00000000  00000+0  00000-0 0  9992
2 10095  50.0000 276.0000 0000000   0.0000 186.0000 13.56072486    15
CTC1_L_00195025-01
1 10096U 23913DL  26075.70031250  .00000000  00000+0  00000-0 0  9991
2 10096  50.0000 288.0000 0000000   0.0000 288.0000 13.56072486    12
CTC1_L_00195025-02
1 10097U 22595YF  26075.70031250  .00000000  00000+0  00000-0 0  9997
2 10097  50.0000 288.0000 0000000   0.0000  18.0000 13.56072486    14
CTC1_L_00195025-03
1 10098U 24043TZ  26075.70031250  .00000000  00000+0  00000-0 0  9998
2 10098  50.0000 288.0000 0000000   0.0000 108.0000 13.56072486    15
CTC1_L_00195025-04
1 10099U 23997LF  26075.70031250  .00000000  00000+0  00000-0 0  9996
2 10099  50.0000 288.0000 0000000   0.0000 198.0000 13.56072486    15
CTC1_L_00195026-01
1 10100U 22094ZC  26075.70031250  .00000000  00000+0  00000-0 0  9996
2 10100  50.0000 300.0000 0000000   0.0000 300.0000 13.56072486    18
CTC1_L_00195026-02
1 10101U 22168VK  26075.70031250  .00000000  00000+0  00000-0 0  9999
2 10101  50.0000 300.0000 0000000   0.0000  30.0000 13.56072486    19
CTC1_L_00195026-03
1 10102U 22283VP  26075.70031250  .00000000  00000+0  00000-0 0  9998
2 10102  50.0000 300.0000 0000000   0.0000 120.0000 13.56072486    10
CTC1_L_00195026-04
1 10103U 22879TW  26075.70031250  .00000000  00000+0  00000-0 0  9990
2 10103  50.0000 300.0000 0000000   0.0000 210.0000 13.56072486    11
CTC1_L_00195027-01
1 10104U 23964VP  26075.70031250  .00000000  00000+0  00000-0 0  9997
2 10104  50.0000 312.0000 0000000   0.0000 312.0000 13.56072486    18
CTC1_L_00195027-02
1 10105U 22731FJ  26075.70031250  .00000000  00000+0  00000-0 0  9999
2 10105  50.0000 312.0000 0000000   0.0000  42.0000 13.56072486    19
CTC1_L_00195027-03
1 10106U 22489SJ  26075.70031250  .00000000  00000+0  00000-0 0  9990
2 10106  50.0000 312.0000 0000000   0.0000 132.0000 13.56072486    10
CTC1_L_00195027-04
1 10107U 26973SQ  26075.70031250  .00000000  00000+0  00000-0 0  9993
2 10107  50.0000 312.0000 0000000   0.0000 222.0000 13.56072486    11
CTC1_L_00195028-01
1 10108U 22017DS  26075.70031250  .00000000  00000+0  00000-0 0  9999
2 10108  50.0000 324.0000 0000000   0.0000 324.0000 13.56072486    18
CTC1_L_00195028-02
1 10109U 24705UX  26075.70031250  .00000000  00000+0  00000-0 0  9996
2 10109  50.0000 324.0000 0000000   0.0000  54.0000 13.56072486    19
CTC1_L_00195028-03
1 10110U 24404OV  26075.70031250  .00000000  00000+0  00000-0 0  9994
2 10110  50.0000 324.0000 0000000   0.0000 144.0000 13.56072486    11
CTC1_L_00195028-04
1 10111U 26318CA  26075.70031250  .00000000  00000+0  00000-0 0  9991
2 10111  50.0000 324.0000 0000000   0.0000 234.0000 13.56072486    12
CTC1_L_00195029-01
1 10112U 22459FZ  26075.70031250  .00000000  00000+0  00000-0 0  9994
2 10112  50.0000 336.0000 0000000   0.0000 336.0000 13.56072486    19
CTC1_L_00195029-02
1 10113U 24055JX  26075.70031250  .00000000  00000+0  00000-0 0  9999
2 10113  50.0000 336.0000 0000000   0.0000  66.0000 13.56072486    10
CTC1_L_00195029-03
1 10114U 22550ZU  26075.70031250  .00000000  00000+0  00000-0 0  9998
2 10114  50.0000 336.0000 0000000   0.0000 156.0000 13.56072486    11
CTC1_L_00195029-04
1 10115U 24883FM  26075.70031250  .00000000  00000+0  00000-0 0  9990
2 10115  50.0000 336.0000 0000000   0.0000 246.0000 13.56072486    12
CTC1_L_00195030-01
1 10116U 26974GT  26075.70031250  .00000000  00000+0  00000-0 0  9994
2 10116  50.0000 348.0000 0000000   0.0000 348.0000 13.56072486    19
CTC1_L_00195030-02
1 10117U 26608AI  26075.70031250  .00000000  00000+0  00000-0 0  9999
2 10117  50.0000 348.0000 0000000   0.0000  78.0000 13.56072486    10
CTC1_L_00195030-03
1 10118U 22073BP  26075.70031250  .00000000  00000+0  00000-0 0  9992
2 10118  50.0000 348.0000 0000000   0.0000 168.0000 13.56072486    11
CTC1_L_00195030-04
1 10119U 22338Y   26075.70031250  .00000000  00000+0  00000-0 0  9997
2 10119  50.0000 348.0000 0000000   0.0000 258.0000 13.56072486    12
